NORAD_CAT_ID,OBJECT_NAME,OBJECT_TYPE,EPOCH,MEAN_MOTION,ECCENTRICITY,INCLINATION,RA_OF_ASC_NODE,ARG_OF_PERICENTER,MEAN_ANOMALY,BSTAR,MEAN_MOTION_DOT,MEAN_MOTION_DDOT,TLE_LINE0,TLE_LINE1,TLE_LINE2,SEMIMAJOR_AXIS,PERIOD,APOGEE,PERIGEE,DECAYED
52606.0,STARLINK-3928,PAYLOAD,2022-08-26 14:00:01,15.08828208,0.0001693,53.2181,315.1124,41.1576,48.5103,0.0011942,0.00018763,0.0,0 STARLINK-3928,1 52606U 22052J   22238.58335648  .00018763  00000-0  11942-2 0  9993,2 52606  53.2181 315.1124 0001693  41.1576  48.5103 15.08828208  1308,6917.916,95.438,540.953,538.61,0.0
52606.0,STARLINK-3928,PAYLOAD,2022-08-26 22:00:00,15.08854274,0.0001563,53.218,313.615,42.6586,58.5351,-0.0014175999999999,-0.00022787,0.0,0 STARLINK-3928,1 52606U 22052J   22238.91667824 -.00022787  00000-0 -14176-2 0  9999,2 52606  53.2180 313.6150 0001563  42.6586  58.5351 15.08854274  1300,6917.837,95.437,540.783,538.621,0.0
52606.0,STARLINK-3928,PAYLOAD,2022-08-27 14:00:01,15.0880739,0.0001776,53.2178,310.6238,43.5276,80.8316,0.0016598,0.00026203,0.0,0 STARLINK-3928,1 52606U 22052J   22239.58334491  .00026203  00000-0  16598-2 0  9999,2 52606  53.2178 310.6238 0001776  43.5276  80.8316 15.08807390  1309,6917.98,95.44,541.0740000000002,538.616,0.0
52606.0,STARLINK-3928,PAYLOAD,2022-08-27 22:00:00,15.08834211,0.0001631,53.2175,309.1262,46.4241,89.5054,-0.00099168,-0.00016033,0.0,0 STARLINK-3928,1 52606U 22052J   22239.91667824 -.00016033  00000-0 -99168-3 0  9992,2 52606  53.2175 309.1262 0001631  46.4241  89.5054 15.08834211  1307,6917.898,95.438,540.891,538.635,0.0
52606.0,STARLINK-3928,PAYLOAD,2022-08-28 04:00:00,15.08822184,0.0001585,53.2174,308.0034,50.4383,4.18,0.0020159,0.00031925,0.0,0 STARLINK-3928,1 52606U 22052J   22240.16667824  .00031925  00000-0  20159-2 0  9999,2 52606  53.2174 308.0034 0001585  50.4383   4.1800 15.08822184 16552,6917.935,95.439,540.896,538.703,0.0
52606.0,STARLINK-3928,PAYLOAD,2022-08-28 14:00:01,15.08819945,0.0001774,53.2172,306.135,43.502,115.6088,0.0022572,0.00035799,0.0,0 STARLINK-3928,1 52606U 22052J   22240.58334491  .00035799  00000-0  22572-2 0  9990,2 52606  53.2172 306.1350 0001774  43.5020 115.6088 15.08819945  1305,6917.941999999999,95.439,541.034,538.5790000000002,0.0
52606.0,STARLINK-3928,PAYLOAD,2022-08-28 20:00:01,15.08855618,0.0001696999999999,53.2167,305.0117,45.1727,32.6206,-0.0019649,-0.00031437,0.0,0 STARLINK-3928,1 52606U 22052J   22240.83334491 -.00031437  00000-0 -19649-2 0  9996,2 52606  53.2167 305.0117 0001697  45.1727  32.6206 15.08855618 16655,6917.833000000001,95.437,540.872,538.524,0.0
52606.0,STARLINK-3928,PAYLOAD,2022-08-28 22:00:00,15.08843919,0.0001619,53.2168,304.6372,47.0553,123.6417,-0.00056812,-9.319e-05,0.0,0 STARLINK-3928,1 52606U 22052J   22240.91667824 -.00009319  00000-0 -56812-3 0  9992,2 52606  53.2168 304.6372 0001619  47.0553 123.6417 15.08843919  1308,6917.868,95.437,540.8530000000002,538.613,0.0
52606.0,STARLINK-3928,PAYLOAD,2022-08-29 12:00:00,15.08843994,0.0001778,53.2164,302.0199,45.8054,55.1923,0.00014755,2.061e-05,0.0,0 STARLINK-3928,1 52606U 22052J   22241.50001157  .00002061  00000-0  14755-3 0  9994,2 52606  53.2164 302.0199 0001778  45.8054  55.1923 15.08843994 16750,6917.868,95.437,540.9630000000002,538.503,0.0
52606.0,STARLINK-3928,PAYLOAD,2022-08-29 14:00:01,15.08827128,0.0001793,53.2164,301.6459,43.8034,150.0998,0.0026219,0.00041672,0.0,0 STARLINK-3928,1 52606U 22052J   22241.58334491  .00041672  00000-0  26219-2 0  9990,2 52606  53.2164 301.6459 0001793  43.8034 150.0998 15.08827128  1300,6917.92,95.438,541.025,538.544,0.0
52606.0,STARLINK-3928,PAYLOAD,2022-08-29 22:00:00,15.08850559,0.0001633,53.2161,300.1478,47.224,158.279,-4.842600000000002e-05,-1.059e-05,0.0,0 STARLINK-3928,1 52606U 22052J   22241.91667824 -.00001059  00000-0 -48426-4 0  9999,2 52606  53.2161 300.1478 0001633  47.2240 158.2790 15.08850559  1306,6917.848000000001,95.437,540.8430000000002,538.5830000000002,0.0
52606.0,STARLINK-3928,PAYLOAD,2022-08-30 14:00:01,15.08806636,0.0001766999999999,53.2158,297.1565,40.6571,188.0698,0.0029136,0.00046345,0.0,0 STARLINK-3928,1 52606U 22052J   22242.58334491  .00046345  00000-0  29136-2 0  9994,2 52606  53.2158 297.1565 0001767  40.6571 188.0698 15.08806636  1301,6917.982,95.44,541.07,538.625,0.0
52606.0,STARLINK-3928,PAYLOAD,2022-08-30 20:00:01,15.08845855,0.000166,53.2156,296.0329,43.0151,104.3873,-0.0017948,-0.00028743,0.0,0 STARLINK-3928,1 52606U 22052J   22242.83334491 -.00028743  00000-0 -17948-2 0  9994,2 52606  53.2156 296.0329 0001660  43.0151 104.3873 15.08845855 16957,6917.861999999999,95.437,540.876,538.5790000000002,0.0
52606.0,STARLINK-3928,PAYLOAD,2022-08-30 22:00:00,15.08827861,0.0001609,53.2157,295.6583,44.0617,196.2441,0.00042148,6.424e-05,0.0,0 STARLINK-3928,1 52606U 22052J   22242.91667824  .00006424  00000-0  42148-3 0  9993,2 52606  53.2157 295.6583 0001609  44.0617 196.2441 15.08827861  1307,6917.917,95.438,540.896,538.669,0.0
52606.0,STARLINK-3928,PAYLOAD,2022-08-31 12:00:00,15.08828829,0.0001836,53.2157,293.041,41.752,128.8411,0.0013058,0.00020549,0.0,0 STARLINK-3928,1 52606U 22052J   22243.50001157  .00020549  00000-0  13058-2 0  9991,2 52606  53.2157 293.0410 0001836  41.7520 128.8411 15.08828829 17059,6917.915,95.438,541.05,538.509,0.0
52606.0,STARLINK-3928,PAYLOAD,2022-08-31 14:00:01,15.08819425,0.0001844,53.2157,292.6670000000001,40.2078,223.2858,0.0029753,0.00047356,0.0,0 STARLINK-3928,1 52606U 22052J   22243.58334491  .00047356  00000-0  29753-2 0  9993,2 52606  53.2157 292.6670 0001844  40.2078 223.2858 15.08819425  1301,6917.943,95.439,541.0840000000002,538.533,0.0
52606.0,STARLINK-3928,PAYLOAD,2022-08-31 22:00:00,15.08840016,0.0001652,53.2159,291.1687,42.1511,232.94,-0.0016717,-0.00026795,0.0,0 STARLINK-3928,1 52606U 22052J   22243.91667824 -.00026795  00000-0 -16717-2 0  9991,2 52606  53.2159 291.1687 0001652  42.1511 232.9400 15.08840016  1305,6917.88,95.438,540.888,538.6030000000002,0.0
52606.0,STARLINK-3928,PAYLOAD,2022-09-01 04:00:01,15.08827552,0.0001652,53.216,290.0462,44.9082,148.9339,0.00023688,3.483e-05,0.0,0 STARLINK-3928,1 52606U 22052J   22244.16668981  .00003483  00000-0  23688-3 0  9997,2 52606  53.2160 290.0462 0001652  44.9082 148.9339 15.08827552 17156,6917.918000000002,95.438,540.9259999999998,538.641,0.0
52606.0,STARLINK-3928,PAYLOAD,2022-09-01 14:00:01,15.08806816,0.0001873,53.216,288.1774,37.5558,260.7676,0.0029483,0.00046904,0.0,0 STARLINK-3928,1 52606U 22052J   22244.58335648  .00046904  00000-0  29483-2 0  9997,2 52606  53.2160 288.1774 0001873  37.5558 260.7676 15.08806816  1308,6917.982,95.44,541.143,538.5509999999998,0.0
52606.0,STARLINK-3928,PAYLOAD,2022-09-01 22:00:00,15.08818386,0.0001715,53.2163,286.6792,41.5113,268.3317,0.0016084,0.00025387,0.0,0 STARLINK-3928,1 52606U 22052J   22244.91667824  .00025387  00000-0  16084-2 0  9993,2 52606  53.2163 286.6792 0001715  41.5113 268.3317 15.08818386  1302,6917.946,95.439,540.998,538.625,0.0
52606.0,STARLINK-3928,PAYLOAD,2022-09-02 12:00:02,15.08820268,0.0001971,53.2166,284.0621,38.9949,201.1901,0.0021392,0.00033903,0.0,0 STARLINK-3928,1 52606U 22052J   22245.50002315  .00033903  00000-0  21392-2 0  9998,2 52606  53.2166 284.0621 0001971  38.9949 201.1901 15.08820268 17368,6917.941,95.439,541.169,538.442,0.0
52606.0,STARLINK-3928,PAYLOAD,2022-09-02 14:00:01,15.08821225,0.000195,53.2164,283.688,37.7223,295.2961,0.0025208,0.00040038,0.0,0 STARLINK-3928,1 52606U 22052J   22245.58334491  .00040038  00000-0  25208-2 0  9996,2 52606  53.2164 283.6880 0001950  37.7223 295.2961 15.08821225  1308,6917.938,95.439,541.1519999999998,538.4540000000002,0.0
52606.0,STARLINK-3928,PAYLOAD,2022-09-02 22:00:01,15.08824938,0.0001768,53.2167,282.1897,42.3852,302.2946,0.0020488,0.00032456,0.0,0 STARLINK-3928,1 52606U 22052J   22245.91668981  .00032456  00000-0  20488-2 0  9997,2 52606  53.2167 282.1897 0001768  42.3852 302.2946 15.08824938  1306,6917.926,95.439,541.015,538.568,0.0
52606.0,STARLINK-3928,PAYLOAD,2022-09-03 04:00:00,15.08856448,0.0001797,53.2169,281.0677,44.69600000000001,218.607,-0.00040217,-6.686e-05,0.0,0 STARLINK-3928,1 52606U 22052J   22246.16667824 -.00006686  00000-0 -40217-3 0  9991,2 52606  53.2169 281.0677 0001797  44.6960 218.6070 15.08856448 17462,6917.83,95.437,540.938,538.452,0.0
52606.0,STARLINK-3928,PAYLOAD,2022-09-03 14:00:01,15.08842313,0.0001965,53.2167,279.1986,37.2979,330.5202,0.0014775,0.00023306,0.0,0 STARLINK-3928,1 52606U 22052J   22246.58334491  .00023306  00000-0  14775-2 0  9993,2 52606  53.2167 279.1986 0001965  37.2979 330.5202 15.08842313  1309,6917.873000000001,95.437,541.0980000000002,538.379,0.0
52606.0,STARLINK-3928,PAYLOAD,2022-09-03 22:00:00,15.08824816,0.000172,53.2168,277.7005,41.2905,338.1471,0.00099136,0.00015518,0.0,0 STARLINK-3928,1 52606U 22052J   22246.91667824  .00015518  00000-0  99136-3 0  9990,2 52606  53.2168 277.7005 0001720  41.2905 338.1471 15.08824816  1309,6917.927,95.439,540.982,538.602,0.0
52606.0,STARLINK-3928,PAYLOAD,2022-09-04 12:00:00,15.08819675,0.0001949,53.2168,275.0838,37.3915,272.3344,0.0027006,0.00042931,0.0,0 STARLINK-3928,1 52606U 22052J   22247.50001157  .00042931  00000-0  27006-2 0  9992,2 52606  53.2168 275.0838 0001949  37.3915 272.3344 15.08819675 17665,6917.943,95.439,541.156,538.4590000000002,0.0
52606.0,STARLINK-3928,PAYLOAD,2022-09-04 14:00:01,15.08830485,0.0001931,53.2165,274.7095,36.0844,6.5984,0.0018434999999999,0.00029166,0.0,0 STARLINK-3928,1 52606U 22052J   22247.58335648  .00029166  00000-0  18435-2 0  9996,2 52606  53.2165 274.7095 0001931  36.0844   6.5984 15.08830485  1304,6917.909000000002,95.438,541.11,538.439,0.0
52606.0,STARLINK-3928,PAYLOAD,2022-09-04 20:00:01,15.08851857,0.0001786,53.2166,273.5859,41.402,279.9196,-0.00073891,-0.00012033,0.0,0 STARLINK-3928,1 52606U 22052J   22247.83334491 -.00012033  00000-0 -73891-3 0  9994,2 52606  53.2166 273.5859 0001786  41.4020 279.9196 15.08851857  1301,6917.844,95.437,540.945,538.474,0.0
